{
  "type": "FeatureCollection",
  "features": [
    {
      "type": "Feature",
      "properties": {
        "norad_id": 38091,
        "name": "BEIDOU-2 G5 (C05)",
        "group": "gnss",
        "lat": -2.3399279735203087,
        "lon": -61.67630851003702,
        "alt_km": 35732.333583805965,
        "timestamp": "2025-12-22T09:53:37.647013+00:00",
        "meta_object_name": "BEIDOU-2 G5 (C05)",
        "meta_object_id": "2012-008A",
        "meta_epoch": "2025-12-19T16:03:31.750272",
        "meta_mean_motion": 1.00268606,
        "meta_eccentricity": 0.0012969,
        "meta_inclination": 3.1258,
        "meta_ra_of_asc_node": 70.6861,
        "meta_arg_of_pericenter": 231.3522,
        "meta_mean_anomaly": 86.1393,
        "meta_ephemeris_type": 0,
        "meta_classification_type": "U",
        "meta_norad_cat_id": 38091,
        "meta_element_set_no": 999,
        "meta_rev_at_epoch": 5056,
        "meta_bstar": 0,
        "meta_mean_motion_dot": 7.9e-07,
        "meta_mean_motion_ddot": 0,
        "tle_line1": "1 38091U 12008A   25353.66911748  .00000079  00000+0  00000+0 0  9996",
        "tle_line2": "2 38091   3.1258  70.6861 0012969 231.3522  86.1393  1.00268606 50560"
      },
      "geometry": {
        "type": "Point",
        "coordinates": [
          -61.67630851003702,
          -2.3399279735203087
        ]
      }
    },
    {
      "type": "Feature",
      "properties": {
        "norad_id": 38250,
        "name": "BEIDOU-2 M3 (C11)",
        "group": "gnss",
        "lat": -54.34041478910492,
        "lon": -119.72875069041456,
        "alt_km": 21467.033037956993,
        "timestamp": "2025-12-22T09:53:37.647025+00:00",
        "meta_object_name": "BEIDOU-2 M3 (C11)",
        "meta_object_id": "2012-018A",
        "meta_epoch": "2025-12-21T23:49:10.133760",
        "meta_mean_motion": 1.86230181,
        "meta_eccentricity": 0.0024099,
        "meta_inclination": 55.9124,
        "meta_ra_of_asc_node": 310.8468,
        "meta_arg_of_pericenter": 275.3188,
        "meta_mean_anomaly": 84.4018,
        "meta_ephemeris_type": 0,
        "meta_classification_type": "U",
        "meta_norad_cat_id": 38250,
        "meta_element_set_no": 999,
        "meta_rev_at_epoch": 9264,
        "meta_bstar": 0,
        "meta_mean_motion_dot": -6e-07,
        "meta_mean_motion_ddot": 0,
        "tle_line1": "1 38250U 12018A   25355.99247840 -.00000060  00000+0  00000+0 0  9998",
        "tle_line2": "2 38250  55.9124 310.8468 0024099 275.3188  84.4018  1.86230181 92640"
      },
      "geometry": {
        "type": "Point",
        "coordinates": [
          -119.72875069041456,
          -54.34041478910492
        ]
      }
    },
    {
      "type": "Feature",
      "properties": {
        "norad_id": 38251,
        "name": "BEIDOU-2 M4 (C12)",
        "group": "gnss",
        "lat": -26.833493933269068,
        "lon": -70.05115710607815,
        "alt_km": 21502.93850073254,
        "timestamp": "2025-12-22T09:53:37.647037+00:00",
        "meta_object_name": "BEIDOU-2 M4 (C12)",
        "meta_object_id": "2012-018B",
        "meta_epoch": "2025-12-21T22:11:20.548896",
        "meta_mean_motion": 1.86229896,
        "meta_eccentricity": 0.0015256,
        "meta_inclination": 55.8135,
        "meta_ra_of_asc_node": 310.0771,
        "meta_arg_of_pericenter": 279.1681,
        "meta_mean_anomaly": 80.6551,
        "meta_ephemeris_type": 0,
        "meta_classification_type": "U",
        "meta_norad_cat_id": 38251,
        "meta_element_set_no": 999,
        "meta_rev_at_epoch": 9264,
        "meta_bstar": 0,
        "meta_mean_motion_dot": -6e-07,
        "meta_mean_motion_ddot": 0,
        "tle_line1": "1 38251U 12018B   25355.92454339 -.00000060  00000+0  00000+0 0  9995",
        "tle_line2": "2 38251  55.8135 310.0771 0015256 279.1681  80.6551  1.86229896 92647"
      },
      "geometry": {
        "type": "Point",
        "coordinates": [
          -70.05115710607815,
          -26.833493933269068
        ]
      }
    },
    {
      "type": "Feature",
      "properties": {
        "norad_id": 38652,
        "name": "SES-5 (EGNOS/PRN 136)",
        "group": "gnss",
        "lat": -0.06898273977573208,
        "lon": -115.41296977236303,
        "alt_km": 35779.54919823541,
        "timestamp": "2025-12-22T09:53:37.647048+00:00",
        "meta_object_name": "SES-5 (EGNOS/PRN 136)",
        "meta_object_id": "2012-036A",
        "meta_epoch": "2025-12-22T03:54:38.524032",
        "meta_mean_motion": 1.00271214,
        "meta_eccentricity": 0.0001816,
        "meta_inclination": 0.059,
        "meta_ra_of_asc_node": 304.6524,
        "meta_arg_of_pericenter": 329.614,
        "meta_mean_anomaly": 240.347,
        "meta_ephemeris_type": 0,
        "meta_classification_type": "U",
        "meta_norad_cat_id": 38652,
        "meta_element_set_no": 999,
        "meta_rev_at_epoch": 4268,
        "meta_bstar": 0,
        "meta_mean_motion_dot": 5.6e-07,
        "meta_mean_motion_ddot": 0,
        "tle_line1": "1 38652U 12036A   25356.16294588  .00000056  00000+0  00000+0 0  9999",
        "tle_line2": "2 38652   0.0590 304.6524 0001816 329.6140 240.3470  1.00271214 42683"
      },
      "geometry": {
        "type": "Point",
        "coordinates": [
          -115.41296977236303,
          -0.06898273977573208
        ]
      }
    },
    {
      "type": "Feature",
      "properties": {
        "norad_id": 38775,
        "name": "BEIDOU-2 M6 (C14)",
        "group": "gnss",
        "lat": 15.868140135338026,
        "lon": -122.11758436768329,
        "alt_km": 21557.98997921397,
        "timestamp": "2025-12-22T09:53:37.647059+00:00",
        "meta_object_name": "BEIDOU-2 M6 (C14)",
        "meta_object_id": "2012-050B",
        "meta_epoch": "2025-12-22T04:08:12.918336",
        "meta_mean_motion": 1.86230916,
        "meta_eccentricity": 0.0011385,
        "meta_inclination": 56.3862,
        "meta_ra_of_asc_node": 68.7545,
        "meta_arg_of_pericenter": 343.4279,
        "meta_mean_anomaly": 16.5848,
        "meta_ephemeris_type": 0,
        "meta_classification_type": "U",
        "meta_norad_cat_id": 38775,
        "meta_element_set_no": 999,
        "meta_rev_at_epoch": 9001,
        "meta_bstar": 0,
        "meta_mean_motion_dot": -3e-07,
        "meta_mean_motion_ddot": 0,
        "tle_line1": "1 38775U 12050B   25356.17237174 -.00000030  00000+0  00000+0 0  9993",
        "tle_line2": "2 38775  56.3862  68.7545 0011385 343.4279  16.5848  1.86230916 90015"
      },
      "geometry": {
        "type": "Point",
        "coordinates": [
          -122.11758436768329,
          15.868140135338026
        ]
      }
    },
    {
      "type": "Feature",
      "properties": {
        "norad_id": 38779,
        "name": "GSAT-10 (GAGAN/PRN 128)",
        "group": "gnss",
        "lat": 0.03695634691082798,
        "lon": -37.36033161171327,
        "alt_km": 35795.4453475425,
        "timestamp": "2025-12-22T09:53:37.647071+00:00",
        "meta_object_name": "GSAT-10 (GAGAN/PRN 128)",
        "meta_object_id": "2012-051B",
        "meta_epoch": "2025-12-22T03:17:19.868928",
        "meta_mean_motion": 1.00271835,
        "meta_eccentricity": 0.0002358,
        "meta_inclination": 0.0694,
        "meta_ra_of_asc_node": 263.8146,
        "meta_arg_of_pericenter": 219.1128,
        "meta_mean_anomaly": 100.3837,
        "meta_ephemeris_type": 0,
        "meta_classification_type": "U",
        "meta_norad_cat_id": 38779,
        "meta_element_set_no": 999,
        "meta_rev_at_epoch": 4832,
        "meta_bstar": 0,
        "meta_mean_motion_dot": -1.43e-06,
        "meta_mean_motion_ddot": 0,
        "tle_line1": "1 38779U 12051B   25356.13703552 -.00000143  00000+0  00000+0 0  9997",
        "tle_line2": "2 38779   0.0694 263.8146 0002358 219.1128 100.3837  1.00271835 48323"
      },
      "geometry": {
        "type": "Point",
        "coordinates": [
          -37.36033161171327,
          0.03695634691082798
        ]
      }
    },
    {
      "type": "Feature",
      "properties": {
        "norad_id": 38833,
        "name": "GPS BIIF-3  (PRN 24)",
        "group": "gnss",
        "lat": 47.08080579875991,
        "lon": -156.55442267768316,
        "alt_km": 19709.49190481487,
        "timestamp": "2025-12-22T09:53:37.647085+00:00",
        "meta_object_name": "GPS BIIF-3  (PRN 24)",
        "meta_object_id": "2012-053A",
        "meta_epoch": "2025-12-21T19:48:37.678176",
        "meta_mean_motion": 2.0056507,
        "meta_eccentricity": 0.0176015,
        "meta_inclination": 53.5594,
        "meta_ra_of_asc_node": 150.8666,
        "meta_arg_of_pericenter": 64.1278,
        "meta_mean_anomaly": 297.6511,
        "meta_ephemeris_type": 0,
        "meta_classification_type": "U",
        "meta_norad_cat_id": 38833,
        "meta_element_set_no": 999,
        "meta_rev_at_epoch": 9588,
        "meta_bstar": 0,
        "meta_mean_motion_dot": 6.3e-07,
        "meta_mean_motion_ddot": 0,
        "tle_line1": "1 38833U 12053A   25355.82543609  .00000063  00000+0  00000+0 0  9990",
        "tle_line2": "2 38833  53.5594 150.8666 0176015  64.1278 297.6511  2.00565070 95884"
      },
      "geometry": {
        "type": "Point",
        "coordinates": [
          -156.55442267768316,
          47.08080579875991
        ]
      }
    }
  ]
}